start=new Date('2022-02-09T00:00:00.000Z').valueOf();
sats=[{"OBJECT_ID":"2021-115X","PERIAPSIS":"493.096","PERIOD":"94.493","BSTAR":"-0.02186100000000","REV_AT_EPOCH":"1172","MEAN_MOTION_DDOT":"0.0000000000000","COUNTRY_CODE":"US","MEAN_MOTION":"15.23915776","GP_ID":"195580623","OBJECT_TYPE":"PAYLOAD","ECCENTRICITY":"0.00013810","CENTER_NAME":"EARTH","ELEMENT_SET_NO":"999","RCS_SIZE":"LARGE","APOAPSIS":"494.994","SEMIMAJOR_AXIS":"6872.180","CLASSIFICATION_TYPE":"U","MEAN_MOTION_DOT":"-0.00500433","TLE_LINE2":"2 49745  53.2173 357.6113 0001381  61.2381 157.1451 15.23915776 11723","RA_OF_ASC_NODE":"357.6113","REF_FRAME":"TEME","TIME_SYSTEM":"UTC","DECAY_DATE":null,"MEAN_ELEMENT_THEORY":"SGP4","OBJECT_NAME":"STARLINK-3241","SITE":"AFETR","EPOCH":"2022-02-08T22:00:01.999584","LAUNCH_DATE":"2021-12-02","TLE_LINE1":"1 49745U 21115X   22039.91668981 -.00500433  00000-0 -21861-1 0  9999","NORAD_CAT_ID":"49745","EPHEMERIS_TYPE":"0","ARG_OF_PERICENTER":"61.2381","FILE":"3295358","INCLINATION":"53.2173","MEAN_ANOMALY":"157.1451"},{"MEAN_MOTION":"15.22721185","COUNTRY_CODE":"US","GP_ID":"195580626","PERIOD":"94.568","REV_AT_EPOCH":"1172","MEAN_MOTION_DDOT":"0.0000000000000","BSTAR":"-0.02074100000000","PERIAPSIS":"496.552","OBJECT_ID":"2021-115Y","NORAD_CAT_ID":"49746","EPHEMERIS_TYPE":"0","LAUNCH_DATE":"2021-12-02","TLE_LINE1":"1 49746U 21115Y   22039.91668981 -.00460674  00000-0 -20741-1 0  9998","EPOCH":"2022-02-08T22:00:01.999584","SITE":"AFETR","MEAN_ANOMALY":"95.2963","INCLINATION":"53.2170","FILE":"3295358","ARG_OF_PERICENTER":"66.8849","TIME_SYSTEM":"UTC","REF_FRAME":"TEME","RA_OF_ASC_NODE":"357.6047","MEAN_ELEMENT_THEORY":"SGP4","OBJECT_NAME":"STARLINK-3233","DECAY_DATE":null,"CLASSIFICATION_TYPE":"U","MEAN_MOTION_DOT":"-0.00460674","SEMIMAJOR_AXIS":"6875.774","APOAPSIS":"498.725","RCS_SIZE":"LARGE","TLE_LINE2":"2 49746  53.2170 357.6047 0001580  66.8849  95.2963 15.22721185 11726","ECCENTRICITY":"0.00015800","OBJECT_TYPE":"PAYLOAD","ELEMENT_SET_NO":"999","CENTER_NAME":"EARTH"},{"GP_ID":"195580122","COUNTRY_CODE":"US","MEAN_MOTION":"15.23566978","MEAN_MOTION_DDOT":"0.0000000000000","REV_AT_EPOCH":"1172","BSTAR":"-0.02928900000000","PERIOD":"94.515","PERIAPSIS":"494.039","OBJECT_ID":"2021-115Z","INCLINATION":"53.2175","MEAN_ANOMALY":"135.0189","ARG_OF_PERICENTER":"61.2307","FILE":"3295358","TLE_LINE1":"1 49747U 21115Z   22039.91668981 -.00658212  00000-0 -29289-1 0  9992","LAUNCH_DATE":"2021-12-02","EPHEMERIS_TYPE":"0","NORAD_CAT_ID":"49747","EPOCH":"2022-02-08T22:00:01.999584","SITE":"AFETR","OBJECT_NAME":"STARLINK-3247","MEAN_ELEMENT_THEORY":"SGP4","DECAY_DATE":null,"TIME_SYSTEM":"UTC","RA_OF_ASC_NODE":"357.6082","REF_FRAME":"TEME","TLE_LINE2":"2 49747  53.2175 357.6082 0001535  61.2307 135.0189 15.23566978 11720","SEMIMAJOR_AXIS":"6873.229","MEAN_MOTION_DOT":"-0.00658212","CLASSIFICATION_TYPE":"U","RCS_SIZE":"LARGE","APOAPSIS":"496.149","CENTER_NAME":"EARTH","ELEMENT_SET_NO":"999","ECCENTRICITY":"0.00015350","OBJECT_TYPE":"PAYLOAD"},{"RCS_SIZE":"LARGE","APOAPSIS":"486.281","SEMIMAJOR_AXIS":"6863.439","CLASSIFICATION_TYPE":"U","MEAN_MOTION_DOT":"-0.00658486","TLE_LINE2":"2 49748  53.2178 357.6177 0001424  56.2529 262.7962 15.26827985 11735","ECCENTRICITY":"0.00014240","OBJECT_TYPE":"PAYLOAD","CENTER_NAME":"EARTH","ELEMENT_SET_NO":"999","EPOCH":"2022-02-08T22:00:01.999584","SITE":"AFETR","TLE_LINE1":"1 49748U 21115AA  22039.91668981 -.00658486  00000-0 -26555-1 0  9999","LAUNCH_DATE":"2021-12-02","NORAD_CAT_ID":"49748","EPHEMERIS_TYPE":"0","ARG_OF_PERICENTER":"56.2529","FILE":"3295358","INCLINATION":"53.2178","MEAN_ANOMALY":"262.7962","RA_OF_ASC_NODE":"357.6177","REF_FRAME":"TEME","TIME_SYSTEM":"UTC","DECAY_DATE":null,"MEAN_ELEMENT_THEORY":"SGP4","OBJECT_NAME":"STARLINK-3248","OBJECT_ID":"2021-115AA","PERIAPSIS":"484.326","COUNTRY_CODE":"US","MEAN_MOTION":"15.26827985","GP_ID":"195580621","PERIOD":"94.313","BSTAR":"-0.02655500000000","MEAN_MOTION_DDOT":"0.0000000000000","REV_AT_EPOCH":"1173"},{"MEAN_ELEMENT_THEORY":"SGP4","OBJECT_NAME":"STARLINK-3250","DECAY_DATE":null,"TIME_SYSTEM":"UTC","RA_OF_ASC_NODE":"359.1403","REF_FRAME":"TEME","INCLINATION":"53.2173","MEAN_ANOMALY":"66.1365","ARG_OF_PERICENTER":"78.4129","FILE":"3295096","TLE_LINE1":"1 49749U 21115AB  22039.58334491 -.00659649  00000-0 -29358-1 0  9995","LAUNCH_DATE":"2021-12-02","NORAD_CAT_ID":"49749","EPHEMERIS_TYPE":"0","SITE":"AFETR","EPOCH":"2022-02-08T14:00:01.000224","CENTER_NAME":"EARTH","ELEMENT_SET_NO":"999","OBJECT_TYPE":"PAYLOAD","ECCENTRICITY":"0.00013030","TLE_LINE2":"2 49749  53.2173 359.1403 0001303  78.4129  66.1365 15.23568162  3648","SEMIMAJOR_AXIS":"6873.225","CLASSIFICATION_TYPE":"U","MEAN_MOTION_DOT":"-0.00659649","RCS_SIZE":"LARGE","APOAPSIS":"495.986","MEAN_MOTION_DDOT":"0.0000000000000","REV_AT_EPOCH":"364","BSTAR":"-0.02935800000000","PERIOD":"94.515","GP_ID":"195550564","COUNTRY_CODE":"US","MEAN_MOTION":"15.23568162","PERIAPSIS":"494.195","OBJECT_ID":"2021-115AB"},{"OBJECT_ID":"2021-115AC","PERIAPSIS":"486.108","GP_ID":"195580119","MEAN_MOTION":"15.26269553","COUNTRY_CODE":"US","BSTAR":"-0.02159300000000","REV_AT_EPOCH":"1173","MEAN_MOTION_DDOT":"0.0000000000000","PERIOD":"94.348","TLE_LINE2":"2 49750  53.2178 357.6202 0001267  62.8195 237.5575 15.26269553 11735","APOAPSIS":"487.848","RCS_SIZE":"LARGE","MEAN_MOTION_DOT":"-0.00528627","CLASSIFICATION_TYPE":"U","SEMIMAJOR_AXIS":"6865.113","ELEMENT_SET_NO":"999","CENTER_NAME":"EARTH","OBJECT_TYPE":"PAYLOAD","ECCENTRICITY":"0.00012670","FILE":"3295358","ARG_OF_PERICENTER":"62.8195","MEAN_ANOMALY":"237.5575","INCLINATION":"53.2178","SITE":"AFETR","EPOCH":"2022-02-08T22:00:01.999584","NORAD_CAT_ID":"49750","EPHEMERIS_TYPE":"0","LAUNCH_DATE":"2021-12-02","TLE_LINE1":"1 49750U 21115AC  22039.91668981 -.00528627  00000-0 -21593-1 0  9992","DECAY_DATE":null,"OBJECT_NAME":"STARLINK-3236","MEAN_ELEMENT_THEORY":"SGP4","REF_FRAME":"TEME","RA_OF_ASC_NODE":"357.6202","TIME_SYSTEM":"UTC"},{"OBJECT_ID":"2021-115AD","PERIAPSIS":"483.814","GP_ID":"195580607","COUNTRY_CODE":"US","MEAN_MOTION":"15.27028889","BSTAR":"-0.02451800000000","MEAN_MOTION_DDOT":"0.0000000000000","REV_AT_EPOCH":"1173","PERIOD":"94.301","TLE_LINE2":"2 49751  53.2176 357.6040 0001294  59.6331 268.5913 15.27028889 11736","RCS_SIZE":"LARGE","APOAPSIS":"485.590","SEMIMAJOR_AXIS":"6862.837","CLASSIFICATION_TYPE":"U","MEAN_MOTION_DOT":"-0.00614781","CENTER_NAME":"EARTH","ELEMENT_SET_NO":"999","ECCENTRICITY":"0.00012940","OBJECT_TYPE":"PAYLOAD","ARG_OF_PERICENTER":"59.6331","FILE":"3295357","INCLINATION":"53.2176","MEAN_ANOMALY":"268.5913","SITE":"AFETR","EPOCH":"2022-02-08T22:00:01.999584","TLE_LINE1":"1 49751U 21115AD  22039.91668981 -.00614781  00000-0 -24518-1 0  9990","LAUNCH_DATE":"2021-12-02","EPHEMERIS_TYPE":"0","NORAD_CAT_ID":"49751","DECAY_DATE":null,"MEAN_ELEMENT_THEORY":"SGP4","OBJECT_NAME":"STARLINK-3229","RA_OF_ASC_NODE":"357.6040","REF_FRAME":"TEME","TIME_SYSTEM":"UTC"},{"TIME_SYSTEM":"UTC","REF_FRAME":"TEME","RA_OF_ASC_NODE":"358.6098","MEAN_ELEMENT_THEORY":"SGP4","OBJECT_NAME":"STARLINK-3209","DECAY_DATE":null,"EPHEMERIS_TYPE":"0","NORAD_CAT_ID":"49752","TLE_LINE1":"1 49752U 21115AE  22039.58334491 -.00010235  00000-0 -23922-3 0  9994","LAUNCH_DATE":"2021-12-02","SITE":"AFETR","EPOCH":"2022-02-08T14:00:01.000224","MEAN_ANOMALY":"132.9520","INCLINATION":"53.2189","FILE":"3295096","ARG_OF_PERICENTER":"11.7812","ECCENTRICITY":"0.00029550","OBJECT_TYPE":"PAYLOAD","ELEMENT_SET_NO":"999","CENTER_NAME":"EARTH","CLASSIFICATION_TYPE":"U","MEAN_MOTION_DOT":"-0.00010235","SEMIMAJOR_AXIS":"6822.837","RCS_SIZE":"LARGE","APOAPSIS":"446.718","TLE_LINE2":"2 49752  53.2189 358.6098 0002955  11.7812 132.9520 15.40477176  3611","PERIOD":"93.478","REV_AT_EPOCH":"361","MEAN_MOTION_DDOT":"0.0000000000000","BSTAR":"-0.00023922000000","MEAN_MOTION":"15.40477176","COUNTRY_CODE":"US","GP_ID":"195549311","PERIAPSIS":"442.686","OBJECT_ID":"2021-115AE"},{"OBJECT_ID":"2021-115AF","PERIAPSIS":"485.147","PERIOD":"94.332","BSTAR":"-0.02281000000000","MEAN_MOTION_DDOT":"0.0000000000000","REV_AT_EPOCH":"1173","COUNTRY_CODE":"US","MEAN_MOTION":"15.26520840","GP_ID":"195580617","OBJECT_TYPE":"PAYLOAD","ECCENTRICITY":"0.00015690","CENTER_NAME":"EARTH","ELEMENT_SET_NO":"999","APOAPSIS":"487.301","RCS_SIZE":"LARGE","SEMIMAJOR_AXIS":"6864.359","CLASSIFICATION_TYPE":"U","MEAN_MOTION_DOT":"-0.00566339","TLE_LINE2":"2 49753  53.2178 357.6152 0001569  65.8679 243.9370 15.26520840 11730","RA_OF_ASC_NODE":"357.6152","REF_FRAME":"TEME","TIME_SYSTEM":"UTC","DECAY_DATE":null,"OBJECT_NAME":"STARLINK-3200","MEAN_ELEMENT_THEORY":"SGP4","SITE":"AFETR","EPOCH":"2022-02-08T22:00:01.999584","LAUNCH_DATE":"2021-12-02","TLE_LINE1":"1 49753U 21115AF  22039.91668981 -.00566339  00000-0 -22810-1 0  9990","NORAD_CAT_ID":"49753","EPHEMERIS_TYPE":"0","ARG_OF_PERICENTER":"65.8679","FILE":"3295358","INCLINATION":"53.2178","MEAN_ANOMALY":"243.9370"},{"PERIAPSIS":"442.804","OBJECT_ID":"2021-115AG","REV_AT_EPOCH":"1173","MEAN_MOTION_DDOT":"0.0000000000000","BSTAR":"0.00045026000000","PERIOD":"93.477","GP_ID":"195581352","MEAN_MOTION":"15.40493094","COUNTRY_CODE":"US","ELEMENT_SET_NO":"999","CENTER_NAME":"EARTH","OBJECT_TYPE":"PAYLOAD","ECCENTRICITY":"0.00027130","TLE_LINE2":"2 49754  53.2190 357.0420 0002713  17.4884 174.7973 15.40493094 11736","MEAN_MOTION_DOT":"0.00018177","CLASSIFICATION_TYPE":"U","SEMIMAJOR_AXIS":"6822.790","APOAPSIS":"446.506","RCS_SIZE":"LARGE","OBJECT_NAME":"STARLINK-3193","MEAN_ELEMENT_THEORY":"SGP4","DECAY_DATE":null,"TIME_SYSTEM":"UTC","REF_FRAME":"TEME","RA_OF_ASC_NODE":"357.0420","MEAN_ANOMALY":"174.7973","INCLINATION":"53.2190","FILE":"3295406","ARG_OF_PERICENTER":"17.4884","NORAD_CAT_ID":"49754","EPHEMERIS_TYPE":"0","TLE_LINE1":"1 49754U 21115AG  22039.91668981  .00018177  00000-0  45026-3 0  9997","LAUNCH_DATE":"2021-12-02","EPOCH":"2022-02-08T22:00:01.999584","SITE":"AFETR"}];
